FENGYUN 1C DEB          
1 30540U 99025AKE 17345.91573845  .00000716  00000-0  39930-3 0  9990
2 30540  98.9781  43.4115 0070005 120.2009 293.6129 14.12886205558737
